[
  {
    "OBJECT_NAME": "STARLINK-4728",
    "OBJECT_ID": "22111W",
    "EPOCH": "2025-11-10T18:05:00.406752",
    "MEAN_MOTION": 15.08843383,
    "ECCENTRICITY": 0.0001256,
    "INCLINATION": 53.2168,
    "RA_OF_ASC_NODE": 87.8429,
    "ARG_OF_PERICENTER": 86.6386,
    "MEAN_ANOMALY": 273.475,
    "EPHEMERIS_TYPE": 0,
    "CLASSIFICATION_TYPE": "U",
    "NORAD_CAT_ID": 53793,
    "ELEMENT_SET_NO": 999,
    "REV_AT_EPOCH": 17573,
    "BSTAR": 0.00021920000000000002,
    "MEAN_MOTION_DOT": 3.203e-05,
    "MEAN_MOTION_DDOT": 0.0,
    "TLE_LINE1": "1 53793U 22111W   25314.75347693  .00003203  00000+0  21920-3 0  9997",
    "TLE_LINE2": "2 53793  53.2168  87.8429 0001256  86.6386 273.4750 15.08843383175737",
    "COMMENT": "Grouped by shell and plane from TLE"
  },
  {
    "OBJECT_NAME": "STARLINK-4730",
    "OBJECT_ID": "22111X",
    "EPOCH": "2025-11-11T02:08:37.387104",
    "MEAN_MOTION": 15.08823859,
    "ECCENTRICITY": 0.0001116,
    "INCLINATION": 53.2178,
    "RA_OF_ASC_NODE": 86.3843,
    "ARG_OF_PERICENTER": 98.3451,
    "MEAN_ANOMALY": 261.7668,
    "EPHEMERIS_TYPE": 0,
    "CLASSIFICATION_TYPE": "U",
    "NORAD_CAT_ID": 53794,
    "ELEMENT_SET_NO": 999,
    "REV_AT_EPOCH": 17578,
    "BSTAR": 0.00011128,
    "MEAN_MOTION_DOT": 1.483e-05,
    "MEAN_MOTION_DDOT": 0.0,
    "TLE_LINE1": "1 53794U 22111X   25315.08932161  .00001483  00000+0  11128-3 0  9992",
    "TLE_LINE2": "2 53794  53.2178  86.3843 0001116  98.3451 261.7668 15.08823859175780",
    "COMMENT": "Grouped by shell and plane from TLE"
  },
  {
    "OBJECT_NAME": "STARLINK-4742",
    "OBJECT_ID": "22111Y",
    "EPOCH": "2025-11-11T01:46:00.285888",
    "MEAN_MOTION": 15.08843997,
    "ECCENTRICITY": 9.51e-05,
    "INCLINATION": 53.2158,
    "RA_OF_ASC_NODE": 86.288,
    "ARG_OF_PERICENTER": 77.1718,
    "MEAN_ANOMALY": 282.938,
    "EPHEMERIS_TYPE": 0,
    "CLASSIFICATION_TYPE": "U",
    "NORAD_CAT_ID": 53795,
    "ELEMENT_SET_NO": 999,
    "REV_AT_EPOCH": 17578,
    "BSTAR": 5.8797e-05,
    "MEAN_MOTION_DOT": 6.48e-06,
    "MEAN_MOTION_DDOT": 0.0,
    "TLE_LINE1": "1 53795U 22111Y   25315.07361442  .00000648  00000+0  58797-4 0  9996",
    "TLE_LINE2": "2 53795  53.2158  86.2880 0000951  77.1718 282.9380 15.08843997175787",
    "COMMENT": "Grouped by shell and plane from TLE"
  },
  {
    "OBJECT_NAME": "STARLINK-4723",
    "OBJECT_ID": "22111AA",
    "EPOCH": "2025-11-11T01:30:08.092224",
    "MEAN_MOTION": 15.08816506,
    "ECCENTRICITY": 0.0001836,
    "INCLINATION": 53.2171,
    "RA_OF_ASC_NODE": 86.2225,
    "ARG_OF_PERICENTER": 86.741,
    "MEAN_ANOMALY": 273.3792,
    "EPHEMERIS_TYPE": 0,
    "CLASSIFICATION_TYPE": "U",
    "NORAD_CAT_ID": 53797,
    "ELEMENT_SET_NO": 999,
    "REV_AT_EPOCH": 17577,
    "BSTAR": 0.0,
    "MEAN_MOTION_DOT": -2.413e-05,
    "MEAN_MOTION_DDOT": 0.0,
    "TLE_LINE1": "1 53797U 22111AA  25315.06259366 -.00002413  00000+0 -13366-3 0  9994",
    "TLE_LINE2": "2 53797  53.2171  86.2225 0001836  86.7410 273.3792 15.08816506175771",
    "COMMENT": "Grouped by shell and plane from TLE"
  },
  {
    "OBJECT_NAME": "STARLINK-4712",
    "OBJECT_ID": "22111AB",
    "EPOCH": "2025-11-11T01:35:23.643168",
    "MEAN_MOTION": 15.08850206,
    "ECCENTRICITY": 0.0001566,
    "INCLINATION": 53.214,
    "RA_OF_ASC_NODE": 86.2399,
    "ARG_OF_PERICENTER": 25.4074,
    "MEAN_ANOMALY": 334.6995,
    "EPHEMERIS_TYPE": 0,
    "CLASSIFICATION_TYPE": "U",
    "NORAD_CAT_ID": 53798,
    "ELEMENT_SET_NO": 999,
    "REV_AT_EPOCH": 17577,
    "BSTAR": 1.6087000000000004e-05,
    "MEAN_MOTION_DOT": -3.2e-07,
    "MEAN_MOTION_DDOT": 0.0,
    "TLE_LINE1": "1 53798U 22111AB  25315.06624587 -.00000032  00000+0  16087-4 0  9994",
    "TLE_LINE2": "2 53798  53.2140  86.2399 0001566  25.4074 334.6995 15.08850206175777",
    "COMMENT": "Grouped by shell and plane from TLE"
  },
  {
    "OBJECT_NAME": "STARLINK-4793",
    "OBJECT_ID": "22114BB",
    "EPOCH": "2025-11-10T16:08:28.262112",
    "MEAN_MOTION": 15.0883985,
    "ECCENTRICITY": 0.000113,
    "INCLINATION": 53.216,
    "RA_OF_ASC_NODE": 88.4691,
    "ARG_OF_PERICENTER": 92.0636,
    "MEAN_ANOMALY": 268.0485,
    "EPHEMERIS_TYPE": 0,
    "CLASSIFICATION_TYPE": "U",
    "NORAD_CAT_ID": 53867,
    "ELEMENT_SET_NO": 999,
    "REV_AT_EPOCH": 17528,
    "BSTAR": 4.0796e-05,
    "MEAN_MOTION_DOT": 3.62e-06,
    "MEAN_MOTION_DDOT": 0.0,
    "TLE_LINE1": "1 53867U 22114BB  25314.67254933  .00000362  00000+0  40796-4 0  9993",
    "TLE_LINE2": "2 53867  53.2160  88.4691 0001130  92.0636 268.0485 15.08839850175288",
    "COMMENT": "Grouped by shell and plane from TLE"
  },
  {
    "OBJECT_NAME": "STARLINK-4810",
    "OBJECT_ID": "22114BD",
    "EPOCH": "2025-11-11T02:23:05.630208",
    "MEAN_MOTION": 15.08836431,
    "ECCENTRICITY": 6.55e-05,
    "INCLINATION": 53.2203,
    "RA_OF_ASC_NODE": 86.1613,
    "ARG_OF_PERICENTER": 67.8185,
    "MEAN_ANOMALY": 292.2876,
    "EPHEMERIS_TYPE": 0,
    "CLASSIFICATION_TYPE": "U",
    "NORAD_CAT_ID": 53869,
    "ELEMENT_SET_NO": 999,
    "REV_AT_EPOCH": 17535,
    "BSTAR": 0.0,
    "MEAN_MOTION_DOT": -1.821e-05,
    "MEAN_MOTION_DDOT": 0.0,
    "TLE_LINE1": "1 53869U 22114BD  25315.09937072 -.00001821  00000+0 -96386-4 0  9993",
    "TLE_LINE2": "2 53869  53.2203  86.1613 0000655  67.8185 292.2876 15.08836431175350",
    "COMMENT": "Grouped by shell and plane from TLE"
  },
  {
    "OBJECT_NAME": "STARLINK-5021",
    "OBJECT_ID": "22119S",
    "EPOCH": "2025-11-10T10:02:46.495680",
    "MEAN_MOTION": 15.0887182,
    "ECCENTRICITY": 0.0001023,
    "INCLINATION": 53.2194,
    "RA_OF_ASC_NODE": 89.3026,
    "ARG_OF_PERICENTER": 109.2012,
    "MEAN_ANOMALY": 250.9091,
    "EPHEMERIS_TYPE": 0,
    "CLASSIFICATION_TYPE": "U",
    "NORAD_CAT_ID": 53902,
    "ELEMENT_SET_NO": 999,
    "REV_AT_EPOCH": 17438,
    "BSTAR": 0.0,
    "MEAN_MOTION_DOT": -6.09e-05,
    "MEAN_MOTION_DDOT": 0.0,
    "TLE_LINE1": "1 53902U 22119S   25314.41859370 -.00006090  00000+0 -36453-3 0  9996",
    "TLE_LINE2": "2 53902  53.2194  89.3026 0001023 109.2012 250.9091 15.08871820174383",
    "COMMENT": "Grouped by shell and plane from TLE"
  },
  {
    "OBJECT_NAME": "STARLINK-5300",
    "OBJECT_ID": "23021BA",
    "EPOCH": "2025-11-10T18:27:29.197152",
    "MEAN_MOTION": 14.98349467,
    "ECCENTRICITY": 0.000314,
    "INCLINATION": 70.0006,
    "RA_OF_ASC_NODE": 84.336,
    "ARG_OF_PERICENTER": 271.5298,
    "MEAN_ANOMALY": 88.5501,
    "EPHEMERIS_TYPE": 0,
    "CLASSIFICATION_TYPE": "U",
    "NORAD_CAT_ID": 55676,
    "ELEMENT_SET_NO": 999,
    "REV_AT_EPOCH": 15196,
    "BSTAR": 0.0010478,
    "MEAN_MOTION_DOT": 0.00012438,
    "MEAN_MOTION_DDOT": 0.0,
    "TLE_LINE1": "1 55676U 23021BA  25314.76908793  .00012438  00000+0  10478-2 0  9990",
    "TLE_LINE2": "2 55676  70.0006  84.3360 0003140 271.5298  88.5501 14.98349467151964",
    "COMMENT": "Grouped by shell and plane from TLE"
  },
  {
    "OBJECT_NAME": "STARLINK-5324",
    "OBJECT_ID": "23021BB",
    "EPOCH": "2025-11-11T02:09:51.744672",
    "MEAN_MOTION": 14.98335868,
    "ECCENTRICITY": 0.00032,
    "INCLINATION": 69.9995,
    "RA_OF_ASC_NODE": 83.4458,
    "ARG_OF_PERICENTER": 265.7272,
    "MEAN_ANOMALY": 94.3521,
    "EPHEMERIS_TYPE": 0,
    "CLASSIFICATION_TYPE": "U",
    "NORAD_CAT_ID": 55677,
    "ELEMENT_SET_NO": 999,
    "REV_AT_EPOCH": 15201,
    "BSTAR": 0.0,
    "MEAN_MOTION_DOT": -4.19e-05,
    "MEAN_MOTION_DDOT": 0.0,
    "TLE_LINE1": "1 55677U 23021BB  25315.09018223 -.00004190  00000+0 -34355-3 0  9997",
    "TLE_LINE2": "2 55677  69.9995  83.4458 0003200 265.7272  94.3521 14.98335868152015",
    "COMMENT": "Grouped by shell and plane from TLE"
  },
  {
    "OBJECT_NAME": "STARLINK-6109",
    "OBJECT_ID": "23046B",
    "EPOCH": "2025-11-11T07:43:35.392224",
    "MEAN_MOTION": 15.02535075,
    "ECCENTRICITY": 0.0001199,
    "INCLINATION": 43.004,
    "RA_OF_ASC_NODE": 82.362,
    "ARG_OF_PERICENTER": 270.2208,
    "MEAN_ANOMALY": 89.8497,
    "EPHEMERIS_TYPE": 0,
    "CLASSIFICATION_TYPE": "U",
    "NORAD_CAT_ID": 56094,
    "ELEMENT_SET_NO": 999,
    "REV_AT_EPOCH": 14425,
    "BSTAR": 1.3985e-05,
    "MEAN_MOTION_DOT": -1.5e-07,
    "MEAN_MOTION_DDOT": 0.0,
    "TLE_LINE1": "1 56094U 23046B   25315.32193741 -.00000015  00000+0  13985-4 0  9991",
    "TLE_LINE2": "2 56094  43.0040  82.3620 0001199 270.2208  89.8497 15.02535075144253",
    "COMMENT": "Grouped by shell and plane from TLE"
  },
  {
    "OBJECT_NAME": "STARLINK-6090",
    "OBJECT_ID": "23046C",
    "EPOCH": "2025-11-11T01:30:15.883776",
    "MEAN_MOTION": 15.02540988,
    "ECCENTRICITY": 0.0001279,
    "INCLINATION": 43.0038,
    "RA_OF_ASC_NODE": 83.8593,
    "ARG_OF_PERICENTER": 265.3429,
    "MEAN_ANOMALY": 94.7267,
    "EPHEMERIS_TYPE": 0,
    "CLASSIFICATION_TYPE": "U",
    "NORAD_CAT_ID": 56095,
    "ELEMENT_SET_NO": 999,
    "REV_AT_EPOCH": 14421,
    "BSTAR": 0.00010745000000000001,
    "MEAN_MOTION_DOT": 1.248e-05,
    "MEAN_MOTION_DDOT": 0.0,
    "TLE_LINE1": "1 56095U 23046C   25315.06268384  .00001248  00000+0  10745-3 0  9997",
    "TLE_LINE2": "2 56095  43.0038  83.8593 0001279 265.3429  94.7267 15.02540988144210",
    "COMMENT": "Grouped by shell and plane from TLE"
  },
  {
    "OBJECT_NAME": "STARLINK-6089",
    "OBJECT_ID": "23046D",
    "EPOCH": "2025-11-11T01:17:30.100704",
    "MEAN_MOTION": 15.02529998,
    "ECCENTRICITY": 0.0001257,
    "INCLINATION": 43.0035,
    "RA_OF_ASC_NODE": 83.7926,
    "ARG_OF_PERICENTER": 266.5078,
    "MEAN_ANOMALY": 93.5621,
    "EPHEMERIS_TYPE": 0,
    "CLASSIFICATION_TYPE": "U",
    "NORAD_CAT_ID": 56096,
    "ELEMENT_SET_NO": 999,
    "REV_AT_EPOCH": 14421,
    "BSTAR": 0.00013875,
    "MEAN_MOTION_DOT": 1.671e-05,
    "MEAN_MOTION_DDOT": 0.0,
    "TLE_LINE1": "1 56096U 23046D   25315.05382061  .00001671  00000+0  13875-3 0  9993",
    "TLE_LINE2": "2 56096  43.0035  83.7926 0001257 266.5078  93.5621 15.02529998144215",
    "COMMENT": "Grouped by shell and plane from TLE"
  }
]